#dP2022 11 27  0  0  0.00000000      96 __u+U ITR00 EXT  IAC
## 2238      0.00000000   900.00000000 59910 0.0000000000000
+  118   C06C07C08C09C10C11C12C13C14C16C19C20C21C22C23C24C25
+        C26C27C28C29C30C32C33C34C35C36C37C38C39C40C41C42C43
+        C44C45C46E01E02E03E04E05E07E08E09E10E11E12E13E14E15
+        E18E19E21E24E25E26E27E30E31E33E34E36G01G02G03G04G05
+        G06G07G08G09G10G11G12G13G14G15G16G17G18G19G20G21G22
+        G23G24G25G26G27G29G30G31G32J02J03J04R01R02R03R04R05
+        R07R08R09R11R12R13R14R15R17R18R19R20R21R22R24R25  0
++        11  8 13 10  8  7  8 12  9 10  9  8  9  9  9  9  8
++         8  8  8  9  8  8  9  8  8  9  8 11  9 10  8  9 11
++         8  9  9  8  8  8  0  7  9  8  8  8  7  9  9  8  9
++         8  8  9  9  8  8 11  9  8  9  9  9  8  8  8  7  8
++         7  8  7  9  8  7  9  8  9  7  9  8  7  8  8  8  9
++         8  8  9 10  8  8  8 10  8  9  9 10  9  9  8  8  8
++         9 10 10 10 10  8  8  9  9  7  9  9  9  7  9  9  0
%c M  cc GPS ccc cccc cccc cccc cccc ccccc ccccc ccccc ccccc
%c cc cc ccc ccc cccc cccc cccc cccc ccccc ccccc ccccc ccccc
%f  0.0000000  0.000000000  0.00000000000  0.000000000000000
%f  0.0000000  0.000000000  0.00000000000  0.000000000000000
%i    0    0    0    0      0      0      0      0         0
%i    0    0    0    0      0      0      0      0         0
/* IAC                                ULTRA-RAPID PREDICTION
/* S/V CLOCKS ARE ALIGNED TO GNSS TIME                      
/* G:C1WC2W R:C1PC2P E:C1XC5X C:C2IC6I J:C1CC2S             
/* PCV:IGS14_2233 OL/AL:FES2004  NONE     YN ORB:CoN CLK:CoN
*  2022 11 27 22 30  0.00000000
PC06 -16684.699904  35947.375312 -14751.834649     -8.368332
PC07  -2555.304637  35892.348449 -21828.112252    153.643481
PC08  -9350.925233  19312.686632  36285.275483    517.173213
PC09 -11351.400496  34566.451470 -21360.279475   -796.366999
PC10   4246.693714  38314.530557 -16215.317671     61.127472
PC11  18971.412768 -18959.336519   7837.350301   -267.641108
PC12  18357.778577  -2844.560685  20874.399365    320.592802
PC13    135.856197  22309.345890  35936.794190    144.241312
PC14  11207.890591 -11960.413532 -22579.163512    214.635389
PC16 -20989.612946  35412.507381  -9608.384479    110.600953
PC19  -4074.296420  20010.638106  19032.099029   -909.214443
PC20 -15680.518001   3691.161023  22794.758731    824.086465
PC21  18661.876004  16095.781903 -13071.501840   -915.576828
PC22  10418.839086  25558.763878   4049.818573   -770.135283
PC23  -7349.903592 -15926.555925  21702.111188   -874.345049
PC24  27164.017283  -3039.693404   5695.636666   -748.976949
PC25  12780.204919 -14342.965157  20238.819163     31.137828
PC26  24912.029096   7613.966483 -10076.946705    -42.016885
PC27 -14707.774640  -6441.976175 -22839.806932     57.891313
PC28  -1312.770889 -21173.103391 -18126.046742     40.916961
PC29 -13037.572275  24602.393304   1868.184323     46.302463
PC30 -19754.765872  12427.043829 -15316.375327      1.090805
PC32 -18790.669225 -16027.733060  13002.172654   -702.254492
PC33   4039.209196 -19984.901285 -19058.535424   -903.453060
PC34  19731.869624 -13450.870900  14416.581325     48.850560
PC35    775.356506  22061.752702  17084.472742    107.898258
PC36 -13734.279288  13818.242251 -19954.973977   -808.664108
PC37 -23913.828497  -8958.752727  11226.905202   -903.390042
PC38 -17613.356490  19525.287604  32942.311423     41.130680
PC39 -21704.955969  35915.413207  -5116.277589     -0.949066
PC40  -6787.408967  32064.903081 -26418.629737     -9.004802
PC41 -10160.055684 -25577.811062  -4553.606765   -321.133108
PC42  16240.947689  -2438.846881 -22522.799340   -745.298479
PC43  13562.272183 -24351.403329  -1118.719403     27.242591
PC44  14907.401184   6220.369767  22746.404682    127.538294
PC45   7820.721019  15754.845344 -21673.787166    -27.775632
PC46 -26540.913001   4219.204545  -7434.980640    -15.873090
PE01   8812.192556  21086.164500 -18816.011878   -571.535167
PE02  -9038.071270 -21109.628207  18664.845485      5.217890
PE03  -2365.331082 -29016.774165   5357.785925   -624.267930
PE04  13494.898499  16799.331384 -20297.735719     -2.149466
PE05  10408.587513 -24434.070700 -13070.412819   -120.458236
PE07 -16923.945693   5699.480846  23603.365705     -2.746102
PE08 -13402.251488 -16786.690220  20361.069872   -639.477225
PE09  16793.135512  -5513.816809 -23749.851540   -744.391612
PE10  24519.479679   -757.911308  16571.313954   -493.866356
PE11  27305.122360  -8795.249064   7281.925760   1124.650461
PE12  18184.984616   6887.800846  22316.320610   -300.677455
PE13 -27234.214672   8227.591167  -8162.475962    430.518605
PE14  12461.848414  10678.583773  17043.241508     68.882153
PE15 -17930.770262  -6993.927227 -22477.719599    704.613182
PE18 -15554.366233 -17318.967002 -22407.519011   -693.068586
PE19    473.802780  29463.120477  -2855.467659  -3885.749057
PE21  -9914.545607  13454.673785 -24428.746569   -497.131368
PE24  24824.793552   3291.434322  15794.846248   -971.171245
PE25  10239.475426 -13238.363018  24422.221393   -593.669715
PE26 -19838.965332  18709.949518  11509.144765  -1895.064462
PE27 -24432.065370  -2397.620974 -16521.112596   -449.898084
PE30 -24039.892447 -17160.749099   1752.415420  -1033.274048
PE31  24438.482724  16680.684873  -1021.078171   -509.253937
PE33  -1889.783814  17989.151302  23438.490312   -455.627084
PE34   1685.042219 -17941.516174 -23486.045050    -16.795039
PE36  20482.621269 -18454.512378 -10766.697738   -467.188441
PG01   2303.292135 -16017.192218 -21296.866467    245.523868
PG02   1435.299612  16128.090060  21721.117606   -635.819396
PG03  -6538.569769 -19442.386305 -17055.846872   -374.490559
PG04    135.402259 -25878.129772   5730.934591    -78.755211
PG05  -6904.156211  13493.791026  21630.445571   -105.947232
PG06 -25084.303831   5328.926742  -7001.391355    528.261951
PG07 -13891.378277 -10259.500784  20719.519640    281.962560
PG08   6374.207960 -24983.267391   5445.174236    -95.919981
PG09  -8665.369412 -19951.360877  15130.717056   -262.151891
PG10  23102.125955  10180.315996  -8595.302069    -13.720332
PG11 -23050.188130  12095.810932   5183.207674    -46.870105
PG12   4273.529071  19794.340256 -17511.862897   -309.349346
PG13 -13087.468362  20253.557013  10743.807105    432.267650
PG14 -22657.846144 -12182.226600  -6839.686314    -76.871293
PG15  -3222.051897  25716.226567   4624.668067     -8.782360
PG16  12559.496805  -8617.296547  21514.020112   -526.724161
PG17 -13308.384940  -7272.653308 -21354.458866    681.495192
PG18  15486.909719   8433.620588  19907.052272    -38.030231
PG19 -15765.518065   4881.794847 -20983.028047    243.118986
PG20 -18049.544470   5611.713511  18588.967568    467.225216
PG21  10620.274948 -17789.105707 -15557.836131    155.117136
PG22  15559.965489  -8557.756296 -19273.090209    373.368212
PG23  20826.577055  16496.938583   1903.178943     -0.669351
PG24  -5427.054546  18347.103193 -18589.154288     40.516684
PG25  14657.048199  19962.556551 -10266.819499    396.790779
PG26  20863.609030   -713.423754  16509.944821    237.013196
PG27  12492.350387 -17662.835968  14908.603273    167.674275
PG29   5240.322001  21805.322243  14124.986369   -570.191088
PG30 -22828.684235  -1704.974539  13769.788136   -536.217204
PG31  25598.462099  -5782.113535  -5622.152057   -201.535864
PG32  14838.047725   3621.411267 -21586.293061   -310.653330
PJ02 -24684.131160  16818.572748 -25149.208727     -0.205055
PJ03 -27540.176276  32008.679008   3223.115592     -5.485211
PJ04 -26491.465675  26340.934674  25578.503262    113.852473
PR01 -10944.293328   1985.636044  22950.894263     18.593126
PR02  -2082.151368  19534.674147  16350.053336    -23.391542
PR03   7500.460121  24415.713098    297.146436     68.049763
PR04  12485.993685  15768.831993 -15678.303667    166.501599
PR05  10796.827598  -1451.225256 -23060.883531    103.618950
PR07  -7860.946960 -24228.802874    610.550774     45.087949
PR08 -12677.898820 -15475.302605  15854.521915    -68.299363
PR09   9020.796308  -9293.969366  21978.335945     89.954616
PR11 -22734.333048  -8511.678811   7862.549159     18.362253
PR12 -23041.099848    338.506501 -10893.053706     23.195897
PR13 -10745.113224   8361.074625 -21585.324824    -29.372502
PR14   9771.486568  12084.509223 -20213.121003     24.078210
PR15  23108.150052   8387.364687  -6791.370571     92.701816
PR17  -2468.445167  15877.910795  19809.501332    581.959628
PR18  10702.226390   3646.162935  22881.219481     54.104423
PR19  18507.708631  -9047.885318  15054.060124   -212.535973
PR20  16162.243632 -19110.458227  -4812.033366    -82.935794
PR21   1312.483294 -14949.222584 -20629.529051   -353.120556
PR22 -11428.504855  -3621.500512 -22485.783116     19.676296
PR24 -15162.124134  19763.013657   5473.478390    129.201945
PR25   3481.318654 -16171.776452 -19416.464328     47.434949
EOF
